[{"OBJECT_NAME":"GEESAT-1 09","OBJECT_ID":"2022-058J","EPOCH":"2026-03-09T22:14:58.178400","MEAN_MOTION":14.996745,"ECCENTRICITY":0.0007116,"INCLINATION":49.9974,"RA_OF_ASC_NODE":293.7726,"ARG_OF_PERICENTER":137.6611,"MEAN_ANOMALY":222.4884,"EPHEMERIS_TYPE":0,"CLASSIFICATION_TYPE":"U","NORAD_CAT_ID":52793,"ELEMENT_SET_NO":999,"REV_AT_EPOCH":20534,"BSTAR":0.00045554765,"MEAN_MOTION_DOT":5.429e-5,"MEAN_MOTION_DDOT":0},{"OBJECT_NAME":"STARLINK-34454","OBJECT_ID":"2025-126P","EPOCH":"2026-03-09T22:22:27.532704","MEAN_MOTION":14.98342465,"ECCENTRICITY":0.00025639,"INCLINATION":70.0032,"RA_OF_ASC_NODE":34.0251,"ARG_OF_PERICENTER":261.2501,"MEAN_ANOMALY":98.8368,"EPHEMERIS_TYPE":0,"CLASSIFICATION_TYPE":"U","NORAD_CAT_ID":64357,"ELEMENT_SET_NO":999,"REV_AT_EPOCH":4071,"BSTAR":0.00052411451,"MEAN_MOTION_DOT":6.168e-5,"MEAN_MOTION_DDOT":0}]
